[{"OBJECT_NAME":"PRAETORIAN SDA_604","OBJECT_ID":"2025-203C","EPOCH":"2026-03-09T19:32:57.437088","MEAN_MOTION":13.8303423,"ECCENTRICITY":0.00068053,"INCLINATION":81.3021,"RA_OF_ASC_NODE":102.9284,"ARG_OF_PERICENTER":107.8605,"MEAN_ANOMALY":252.3294,"EPHEMERIS_TYPE":0,"CLASSIFICATION_TYPE":"U","NORAD_CAT_ID":65567,"ELEMENT_SET_NO":999,"REV_AT_EPOCH":2494,"BSTAR":4.0384414e-5,"MEAN_MOTION_DOT":5.6e-7,"MEAN_MOTION_DDOT":0},{"OBJECT_NAME":"SDA_1684","OBJECT_ID":"2025-230W","EPOCH":"2026-03-09T22:42:30.839328","MEAN_MOTION":13.84530405,"ECCENTRICITY":0.00030032,"INCLINATION":81.3001,"RA_OF_ASC_NODE":303.7717,"ARG_OF_PERICENTER":64.2514,"MEAN_ANOMALY":295.8953,"EPHEMERIS_TYPE":0,"CLASSIFICATION_TYPE":"U","NORAD_CAT_ID":65994,"ELEMENT_SET_NO":999,"REV_AT_EPOCH":2007,"BSTAR":-0.026007307,"MEAN_MOTION_DOT":-0.00029027,"MEAN_MOTION_DDOT":0}]
